{"type": "FeatureCollection", "features": [ {"type": "Feature", "properties": {"norad_id": 33911, "name": "COSMOS 2251 DEB", "group": "cosmos-2251-debris", "lat": -26.917242264898324, "lon": 176.05528577709572, "alt_km": 662.1751989647983, "timestamp": "2025-12-01T03:58:49.144056+00:00", "meta": {"OBJECT_NAME": "COSMOS 2251 DEB", "OBJECT_ID": "1993-036DQ", "EPOCH": "2025-11-30T17:14:58.321248", "MEAN_MOTION": 14.74373369, "ECCENTRICITY": 0.0014629, "INCLINATION": 74.091, "RA_OF_ASC_NODE": 185.251, "ARG_OF_PERICENTER": 133.076, "MEAN_ANOMALY": 346.8131, "EPHEMERIS_TYPE": 0, "CLASSIFICATION_TYPE": "U", "NORAD_CAT_ID": 33911, "ELEMENT_SET_NO": 999, "REV_AT_EPOCH": 88467, "BSTAR": 0.0017548, "MEAN_MOTION_DOT": 0.00011643, "MEAN_MOTION_DDOT": 0, "GROUP": "cosmos-2251-debris"}, "tle": {"line1": "1 33911U 93036DQ  25334.71873057  .00011643  00000+0  17548-2 0  9994", "line2": "2 33911  74.0910 185.2510 0014629 133.0760 346.8131 14.74373369884670"}}, "geometry": {"type": "Point", "coordinates": [176.05528577709572, -26.917242264898324]}}, {"type": "Feature", "properties": {"norad_id": 33912, "name": "COSMOS 2251 DEB", "group": "cosmos-2251-debris", "lat": 73.64000191410868, "lon": -71.24501019972868, "alt_km": 719.9743167344268, "timestamp": "2025-12-01T03:58:49.144066+00:00", "meta": {"OBJECT_NAME": "COSMOS 2251 DEB", "OBJECT_ID": "1993-036DR", "EPOCH": "2025-11-30T16:09:46.950912", "MEAN_MOTION": 14.51788011, "ECCENTRICITY": 0.0011639, "INCLINATION": 74.0337, "RA_OF_ASC_NODE": 212.4518, "ARG_OF_PERICENTER": 291.1147, "MEAN_ANOMALY": 102.8894, "EPHEMERIS_TYPE": 0, "CLASSIFICATION_TYPE": "U", "NORAD_CAT_ID": 33912, "ELEMENT_SET_NO": 999, "REV_AT_EPOCH": 88258, "BSTAR": 0.00069466, "MEAN_MOTION_DOT": 2.769e-05, "MEAN_MOTION_DDOT": 0, "GROUP": "cosmos-2251-debris"}, "tle": {"line1": "1 33912U 93036DR  25334.67346008  .00002769  00000+0  69466-3 0  9997", "line2": "2 33912  74.0337 212.4518 0011639 291.1147 102.8894 14.51788011882581"}}, "geometry": {"type": "Point", "coordinates": [-71.24501019972868, 73.64000191410868]}}, {"type": "Feature", "properties": {"norad_id": 33913, "name": "COSMOS 2251 DEB", "group": "cosmos-2251-debris", "lat": -44.404662560779585, "lon": -170.95666106853906, "alt_km": 703.0460082986538, "timestamp": "2025-12-01T03:58:49.144076+00:00", "meta": {"OBJECT_NAME": "COSMOS 2251 DEB", "OBJECT_ID": "1993-036DS", "EPOCH": "2025-11-30T15:02:02.704416", "MEAN_MOTION": 14.48409519, "ECCENTRICITY": 0.0048102, "INCLINATION": 74.0342, "RA_OF_ASC_NODE": 206.3374, "ARG_OF_PERICENTER": 311.1783, "MEAN_ANOMALY": 70.5951, "EPHEMERIS_TYPE": 0, "CLASSIFICATION_TYPE": "U", "NORAD_CAT_ID": 33913, "ELEMENT_SET_NO": 999, "REV_AT_EPOCH": 88282, "BSTAR": 0.00052987, "MEAN_MOTION_DOT": 1.986e-05, "MEAN_MOTION_DDOT": 0, "GROUP": "cosmos-2251-debris"}, "tle": {"line1": "1 33913U 93036DS  25334.62642019  .00001986  00000+0  52987-3 0  9994", "line2": "2 33913  74.0342 206.3374 0048102 311.1783  70.5951 14.48409519882825"}}, "geometry": {"type": "Point", "coordinates": [-170.95666106853906, -44.404662560779585]}}, {"type": "Feature", "properties": {"norad_id": 33914, "name": "COSMOS 2251 DEB", "group": "cosmos-2251-debris", "lat": -44.544489663084114, "lon": -129.53031746624345, "alt_km": 979.6333993186654, "timestamp": "2025-12-01T03:58:49.144107+00:00", "meta": {"OBJECT_NAME": "COSMOS 2251 DEB", "OBJECT_ID": "1993-036DT", "EPOCH": "2025-11-30T15:11:57.444000", "MEAN_MOTION": 13.71962298, "ECCENTRICITY": 0.0302243, "INCLINATION": 74.0918, "RA_OF_ASC_NODE": 35.0457, "ARG_OF_PERICENTER": 140.9773, "MEAN_ANOMALY": 333.0636, "EPHEMERIS_TYPE": 0, "CLASSIFICATION_TYPE": "U", "NORAD_CAT_ID": 33914, "ELEMENT_SET_NO": 999, "REV_AT_EPOCH": 83915, "BSTAR": 0.00068038, "MEAN_MOTION_DOT": 8.35e-06, "MEAN_MOTION_DDOT": 0, "GROUP": "cosmos-2251-debris"}, "tle": {"line1": "1 33914U 93036DT  25334.63330375  .00000835  00000+0  68038-3 0  9991", "line2": "2 33914  74.0918  35.0457 0302243 140.9773 333.0636 13.71962298839158"}}, "geometry": {"type": "Point", "coordinates": [-129.53031746624345, -44.544489663084114]}}, {"type": "Feature", "properties": {"norad_id": 33915, "name": "COSMOS 2251 DEB", "group": "cosmos-2251-debris", "lat": -56.254917224042956, "lon": -99.32716581542874, "alt_km": 779.467157991633, "timestamp": "2025-12-01T03:58:49.144132+00:00", "meta": {"OBJECT_NAME": "COSMOS 2251 DEB", "OBJECT_ID": "1993-036DU", "EPOCH": "2025-11-30T15:51:33.657408", "MEAN_MOTION": 14.3503051, "ECCENTRICITY": 0.0105168, "INCLINATION": 74.0447, "RA_OF_ASC_NODE": 56.2421, "ARG_OF_PERICENTER": 151.9282, "MEAN_ANOMALY": 358.6267, "EPHEMERIS_TYPE": 0, "CLASSIFICATION_TYPE": "U", "NORAD_CAT_ID": 33915, "ELEMENT_SET_NO": 999, "REV_AT_EPOCH": 87584, "BSTAR": 0.00052516, "MEAN_MOTION_DOT": 1.567e-05, "MEAN_MOTION_DDOT": 0, "GROUP": "cosmos-2251-debris"}, "tle": {"line1": "1 33915U 93036DU  25334.66080622  .00001567  00000+0  52516-3 0  9999", "line2": "2 33915  74.0447  56.2421 0105168 151.9282 358.6267 14.35030510875849"}}, "geometry": {"type": "Point", "coordinates": [-99.32716581542874, -56.254917224042956]}}, {"type": "Feature", "properties": {"norad_id": 33916, "name": "COSMOS 2251 DEB", "group": "cosmos-2251-debris", "lat": -73.9527255432017, "lon": -24.12165412009954, "alt_km": 818.1831374330632, "timestamp": "2025-12-01T03:58:49.144144+00:00", "meta": {"OBJECT_NAME": "COSMOS 2251 DEB", "OBJECT_ID": "1993-036DV", "EPOCH": "2025-11-30T14:57:22.783104", "MEAN_MOTION": 13.68588807, "ECCENTRICITY": 0.0325523, "INCLINATION": 74.0531, "RA_OF_ASC_NODE": 60.4965, "ARG_OF_PERICENTER": 235.2102, "MEAN_ANOMALY": 241.6336, "EPHEMERIS_TYPE": 0, "CLASSIFICATION_TYPE": "U", "NORAD_CAT_ID": 33916, "ELEMENT_SET_NO": 999, "REV_AT_EPOCH": 83725, "BSTAR": 0.00059807, "MEAN_MOTION_DOT": 7.19e-06, "MEAN_MOTION_DDOT": 0, "GROUP": "cosmos-2251-debris"}, "tle": {"line1": "1 33916U 93036DV  25334.62318036  .00000719  00000+0  59807-3 0  9997", "line2": "2 33916  74.0531  60.4965 0325523 235.2102 241.6336 13.68588807837253"}}, "geometry": {"type": "Point", "coordinates": [-24.12165412009954, -73.9527255432017]}}, {"type": "Feature", "properties": {"norad_id": 33917, "name": "COSMOS 2251 DEB", "group": "cosmos-2251-debris", "lat": -39.85224154071335, "lon": 127.61189655788768, "alt_km": 931.0805071572677, "timestamp": "2025-12-01T03:58:49.144156+00:00", "meta": {"OBJECT_NAME": "COSMOS 2251 DEB", "OBJECT_ID": "1993-036DW", "EPOCH": "2025-11-30T17:39:51.937056", "MEAN_MOTION": 13.69330098, "ECCENTRICITY": 0.0330989, "INCLINATION": 74.106, "RA_OF_ASC_NODE": 142.0746, "ARG_OF_PERICENTER": 245.6737, "MEAN_ANOMALY": 110.9493, "EPHEMERIS_TYPE": 0, "CLASSIFICATION_TYPE": "U", "NORAD_CAT_ID": 33917, "ELEMENT_SET_NO": 999, "REV_AT_EPOCH": 83569, "BSTAR": 0.0008518, "MEAN_MOTION_DOT": 1.063e-05, "MEAN_MOTION_DDOT": 0, "GROUP": "cosmos-2251-debris"}, "tle": {"line1": "1 33917U 93036DW  25334.73601779  .00001063  00000+0  85180-3 0  9995", "line2": "2 33917  74.1060 142.0746 0330989 245.6737 110.9493 13.69330098835693"}}, "geometry": {"type": "Point", "coordinates": [127.61189655788768, -39.85224154071335]}}, {"type": "Feature", "properties": {"norad_id": 33920, "name": "COSMOS 2251 DEB", "group": "cosmos-2251-debris", "lat": -55.24575865807107, "lon": -63.90670595351165, "alt_km": 682.2988810235156, "timestamp": "2025-12-01T03:58:49.144167+00:00", "meta": {"OBJECT_NAME": "COSMOS 2251 DEB", "OBJECT_ID": "1993-036DZ", "EPOCH": "2025-11-30T08:29:05.715168", "MEAN_MOTION": 14.5791504, "ECCENTRICITY": 0.00385446, "INCLINATION": 74.0621, "RA_OF_ASC_NODE": 321.9567, "ARG_OF_PERICENTER": 330.475, "MEAN_ANOMALY": 29.4237, "EPHEMERIS_TYPE": 0, "CLASSIFICATION_TYPE": "U", "NORAD_CAT_ID": 33920, "ELEMENT_SET_NO": 999, "REV_AT_EPOCH": 87934, "BSTAR": 0.0021724272, "MEAN_MOTION_DOT": 0.0001005, "MEAN_MOTION_DDOT": 0, "GROUP": "cosmos-2251-debris"}, "tle": {"line1": "1 33920U 93036DZ  25334.35353837  .00010050  00000+0  21724-2 0  9995", "line2": "2 33920  74.0621 321.9567 0038544 330.4750  29.4237 14.57915040879342"}}, "geometry": {"type": "Point", "coordinates": [-63.90670595351165, -55.24575865807107]}}, {"type": "Feature", "properties": {"norad_id": 33922, "name": "COSMOS 2251 DEB", "group": "cosmos-2251-debris", "lat": 72.5248921786926, "lon": -125.2150762648169, "alt_km": 735.8074350565803, "timestamp": "2025-12-01T03:58:49.144177+00:00", "meta": {"OBJECT_NAME": "COSMOS 2251 DEB", "OBJECT_ID": "1993-036EB", "EPOCH": "2025-11-30T14:36:20.563776", "MEAN_MOTION": 14.49441449, "ECCENTRICITY": 0.002325, "INCLINATION": 74.0458, "RA_OF_ASC_NODE": 170.5076, "ARG_OF_PERICENTER": 282.5285, "MEAN_ANOMALY": 133.5243, "EPHEMERIS_TYPE": 0, "CLASSIFICATION_TYPE": "U", "NORAD_CAT_ID": 33922, "ELEMENT_SET_NO": 999, "REV_AT_EPOCH": 88402, "BSTAR": 0.0003706, "MEAN_MOTION_DOT": 1.396e-05, "MEAN_MOTION_DDOT": 0, "GROUP": "cosmos-2251-debris"}, "tle": {"line1": "1 33922U 93036EB  25334.60857134  .00001396  00000+0  37060-3 0  9998", "line2": "2 33922  74.0458 170.5076 0023250 282.5285 133.5243 14.49441449884026"}}, "geometry": {"type": "Point", "coordinates": [-125.2150762648169, 72.5248921786926]}}]}